SENTINEL-6              
1 46984U 20086A   24094.82528127 -.00000056  00000+0  21177-4 0  9994
2 46984  66.0450   5.7203 0007802 271.3030  88.7092 12.80929460157305
